start=new Date('2022-12-05T00:00:00.000Z').valueOf();
sats=[{"RA_OF_ASC_NODE":"234.5635","BSTAR":"-0.00003406000000","COUNTRY_CODE":"US","PERIAPSIS":"546.117","ARG_OF_PERICENTER":"81.7272","SEMIMAJOR_AXIS":"6925.353","TLE_LINE2":"2 47911  53.0559 234.5635 0001590  81.7272 278.3897 15.06398560 96272","SITE":"AFETR","REF_FRAME":"TEME","CENTER_NAME":"EARTH","MEAN_MOTION_DOT":"-0.00000789","LAUNCH_DATE":"2021-03-14","MEAN_ELEMENT_THEORY":"SGP4","MEAN_MOTION_DDOT":"0.0000000000000","OBJECT_TYPE":"PAYLOAD","ECCENTRICITY":"0.00015900","CLASSIFICATION_TYPE":"U","RCS_SIZE":"LARGE","MEAN_ANOMALY":"278.3897","REV_AT_EPOCH":"9627","FILE":"3681230","GP_ID":"219524937","INCLINATION":"53.0559","TIME_SYSTEM":"UTC","APOAPSIS":"548.319","EPOCH":"2022-12-04T10:45:15.471072","MEAN_MOTION":"15.06398560","OBJECT_NAME":"STARLINK-2371","DECAY_DATE":null,"TLE_LINE1":"1 47911U 21021BD  22338.44809573 -.00000789  00000-0 -34060-4 0  9999","EPHEMERIS_TYPE":"0","OBJECT_ID":"2021-021BD","PERIOD":"95.592","ELEMENT_SET_NO":"999","NORAD_CAT_ID":"47911"},{"MEAN_ANOMALY":"301.4762","REV_AT_EPOCH":"9643","FILE":"3681207","GP_ID":"219520142","TIME_SYSTEM":"UTC","INCLINATION":"53.0544","APOAPSIS":"548.304","EPOCH":"2022-12-04T02:13:39.133920","MEAN_MOTION":"15.06401554","OBJECT_NAME":"STARLINK-2372","DECAY_DATE":null,"TLE_LINE1":"1 47912U 21021BE  22338.09281405  .00000558  00000-0  56334-4 0  9999","EPHEMERIS_TYPE":"0","OBJECT_ID":"2021-021BE","PERIOD":"95.592","ELEMENT_SET_NO":"999","NORAD_CAT_ID":"47912","RA_OF_ASC_NODE":"220.9028","BSTAR":"0.00005633400000","COUNTRY_CODE":"US","PERIAPSIS":"546.114","ARG_OF_PERICENTER":"58.6381","SEMIMAJOR_AXIS":"6925.344","SITE":"AFETR","TLE_LINE2":"2 47912  53.0544 220.9028 0001581  58.6381 301.4762 15.06401554 96431","REF_FRAME":"TEME","CENTER_NAME":"EARTH","MEAN_MOTION_DOT":"0.00000558","LAUNCH_DATE":"2021-03-14","MEAN_MOTION_DDOT":"0.0000000000000","MEAN_ELEMENT_THEORY":"SGP4","OBJECT_TYPE":"PAYLOAD","ECCENTRICITY":"0.00015810","RCS_SIZE":"LARGE","CLASSIFICATION_TYPE":"U"},{"SEMIMAJOR_AXIS":"6925.344","TLE_LINE2":"2 47913  53.0557 229.8630 0001739  52.9979 307.1169 15.06401616 96509","SITE":"AFETR","CENTER_NAME":"EARTH","MEAN_MOTION_DOT":"-0.00001611","REF_FRAME":"TEME","BSTAR":"-0.00008926100000","RA_OF_ASC_NODE":"229.8630","PERIAPSIS":"546.004","ARG_OF_PERICENTER":"52.9979","COUNTRY_CODE":"US","ECCENTRICITY":"0.00017390","RCS_SIZE":"LARGE","CLASSIFICATION_TYPE":"U","OBJECT_TYPE":"PAYLOAD","LAUNCH_DATE":"2021-03-14","MEAN_ELEMENT_THEORY":"SGP4","MEAN_MOTION_DDOT":"0.0000000000000","INCLINATION":"53.0557","TIME_SYSTEM":"UTC","APOAPSIS":"548.413","EPOCH":"2022-12-04T10:22:04.780128","MEAN_MOTION":"15.06401616","MEAN_ANOMALY":"307.1169","REV_AT_EPOCH":"9650","GP_ID":"219520893","FILE":"3681207","PERIOD":"95.592","ELEMENT_SET_NO":"999","OBJECT_ID":"2021-021BF","NORAD_CAT_ID":"47913","DECAY_DATE":null,"TLE_LINE1":"1 47913U 21021BF  22338.43199977 -.00001611  00000-0 -89261-4 0  9998","OBJECT_NAME":"STARLINK-2374","EPHEMERIS_TYPE":"0"},{"OBJECT_TYPE":"PAYLOAD","ECCENTRICITY":"0.00017080","RCS_SIZE":"LARGE","CLASSIFICATION_TYPE":"U","MEAN_ELEMENT_THEORY":"SGP4","MEAN_MOTION_DDOT":"0.0000000000000","LAUNCH_DATE":"2021-03-14","REF_FRAME":"TEME","CENTER_NAME":"EARTH","MEAN_MOTION_DOT":"-0.00001677","SEMIMAJOR_AXIS":"6925.394","SITE":"AFETR","TLE_LINE2":"2 47914  53.0548 230.7941 0001708  68.4183 291.6988 15.06385270 96458","COUNTRY_CODE":"US","PERIAPSIS":"546.076","ARG_OF_PERICENTER":"68.4183","RA_OF_ASC_NODE":"230.7941","BSTAR":"-0.00009370900000","NORAD_CAT_ID":"47914","OBJECT_ID":"2021-021BG","PERIOD":"95.593","ELEMENT_SET_NO":"999","EPHEMERIS_TYPE":"0","OBJECT_NAME":"STARLINK-2375","DECAY_DATE":null,"TLE_LINE1":"1 47914U 21021BG  22338.11864945 -.00001677  00000-0 -93709-4 0  9992","MEAN_MOTION":"15.06385270","TIME_SYSTEM":"UTC","INCLINATION":"53.0548","APOAPSIS":"548.442","EPOCH":"2022-12-04T02:50:51.312480","FILE":"3681207","GP_ID":"219519141","MEAN_ANOMALY":"291.6988","REV_AT_EPOCH":"9645"},{"LAUNCH_DATE":"2021-03-14","MEAN_MOTION_DDOT":"0.0000000000000","MEAN_ELEMENT_THEORY":"SGP4","OBJECT_TYPE":"PAYLOAD","ECCENTRICITY":"0.00015140","RCS_SIZE":"LARGE","CLASSIFICATION_TYPE":"U","RA_OF_ASC_NODE":"226.0890","BSTAR":"0.00005810000000","COUNTRY_CODE":"US","PERIAPSIS":"546.178","ARG_OF_PERICENTER":"99.6966","SEMIMAJOR_AXIS":"6925.361","SITE":"AFETR","TLE_LINE2":"2 47915  53.0557 226.0890 0001514  99.6966 260.4195 15.06395920 96525","REF_FRAME":"TEME","CENTER_NAME":"EARTH","MEAN_MOTION_DOT":"0.00000584","OBJECT_NAME":"STARLINK-2376","DECAY_DATE":null,"TLE_LINE1":"1 47915U 21021BH  22338.05090347  .00000584  00000-0  58100-4 0  9993","EPHEMERIS_TYPE":"0","OBJECT_ID":"2021-021BH","PERIOD":"95.592","ELEMENT_SET_NO":"999","NORAD_CAT_ID":"47915","MEAN_ANOMALY":"260.4195","REV_AT_EPOCH":"9652","FILE":"3681207","GP_ID":"219519391","INCLINATION":"53.0557","TIME_SYSTEM":"UTC","APOAPSIS":"548.275","EPOCH":"2022-12-04T01:13:18.059808","MEAN_MOTION":"15.06395920"},{"EPHEMERIS_TYPE":"0","OBJECT_NAME":"STARLINK-2378","DECAY_DATE":null,"TLE_LINE1":"1 47916U 21021BJ  22338.62176187  .00001314  00000-0  10707-3 0  9996","NORAD_CAT_ID":"47916","OBJECT_ID":"2021-021BJ","PERIOD":"95.592","ELEMENT_SET_NO":"999","FILE":"3681438","GP_ID":"219530338","MEAN_ANOMALY":"291.9833","REV_AT_EPOCH":"9633","MEAN_MOTION":"15.06399426","INCLINATION":"53.0532","TIME_SYSTEM":"UTC","APOAPSIS":"548.328","EPOCH":"2022-12-04T14:55:20.225568","MEAN_MOTION_DDOT":"0.0000000000000","MEAN_ELEMENT_THEORY":"SGP4","LAUNCH_DATE":"2021-03-14","OBJECT_TYPE":"PAYLOAD","ECCENTRICITY":"0.00016060","CLASSIFICATION_TYPE":"U","RCS_SIZE":"LARGE","COUNTRY_CODE":"US","PERIAPSIS":"546.103","ARG_OF_PERICENTER":"68.1326","RA_OF_ASC_NODE":"208.5401","BSTAR":"0.00010707000000","REF_FRAME":"TEME","CENTER_NAME":"EARTH","MEAN_MOTION_DOT":"0.00001314","SEMIMAJOR_AXIS":"6925.350","TLE_LINE2":"2 47916  53.0532 208.5401 0001606  68.1326 291.9833 15.06399426 96337","SITE":"AFETR"},{"INCLINATION":"53.0536","TIME_SYSTEM":"UTC","APOAPSIS":"548.225","EPOCH":"2022-12-04T02:20:18.927456","MEAN_MOTION":"15.06395921","MEAN_ANOMALY":"283.8762","REV_AT_EPOCH":"9656","GP_ID":"219520393","FILE":"3681207","PERIOD":"95.592","ELEMENT_SET_NO":"999","OBJECT_ID":"2021-021BK","NORAD_CAT_ID":"47917","DECAY_DATE":null,"TLE_LINE1":"1 47917U 21021BK  22338.09744129 -.00000823  00000-0 -36357-4 0  9991","OBJECT_NAME":"STARLINK-2397","EPHEMERIS_TYPE":"0","SEMIMAJOR_AXIS":"6925.361","TLE_LINE2":"2 47917  53.0536 220.8771 0001443  76.2387 283.8762 15.06395921 96567","SITE":"AFETR","CENTER_NAME":"EARTH","MEAN_MOTION_DOT":"-0.00000823","REF_FRAME":"TEME","BSTAR":"-0.00003635700000","RA_OF_ASC_NODE":"220.8771","PERIAPSIS":"546.227","ARG_OF_PERICENTER":"76.2387","COUNTRY_CODE":"US","ECCENTRICITY":"0.00014430","CLASSIFICATION_TYPE":"U","RCS_SIZE":"LARGE","OBJECT_TYPE":"PAYLOAD","LAUNCH_DATE":"2021-03-14","MEAN_MOTION_DDOT":"0.0000000000000","MEAN_ELEMENT_THEORY":"SGP4"},{"MEAN_ANOMALY":"282.1710","REV_AT_EPOCH":"9659","GP_ID":"219519642","FILE":"3681207","INCLINATION":"53.0537","TIME_SYSTEM":"UTC","APOAPSIS":"548.306","EPOCH":"2022-12-04T02:30:56.680416","MEAN_MOTION":"15.06379749","DECAY_DATE":null,"TLE_LINE1":"1 47918U 21021BL  22338.10482269  .00001133  00000-0  95007-4 0  9998","OBJECT_NAME":"STARLINK-2398","EPHEMERIS_TYPE":"0","PERIOD":"95.593","ELEMENT_SET_NO":"999","OBJECT_ID":"2021-021BL","NORAD_CAT_ID":"47918","BSTAR":"0.00009500700000","RA_OF_ASC_NODE":"220.8617","PERIAPSIS":"546.245","ARG_OF_PERICENTER":"77.9446","COUNTRY_CODE":"US","SEMIMAJOR_AXIS":"6925.411","TLE_LINE2":"2 47918  53.0537 220.8617 0001488  77.9446 282.1710 15.06379749 96599","SITE":"AFETR","CENTER_NAME":"EARTH","MEAN_MOTION_DOT":"0.00001133","REF_FRAME":"TEME","LAUNCH_DATE":"2021-03-14","MEAN_MOTION_DDOT":"0.0000000000000","MEAN_ELEMENT_THEORY":"SGP4","ECCENTRICITY":"0.00014880","CLASSIFICATION_TYPE":"U","RCS_SIZE":"LARGE","OBJECT_TYPE":"PAYLOAD"},{"LAUNCH_DATE":"2021-03-14","MEAN_ELEMENT_THEORY":"SGP4","MEAN_MOTION_DDOT":"0.0000000000000","ECCENTRICITY":"0.00019080","CLASSIFICATION_TYPE":"U","RCS_SIZE":"LARGE","OBJECT_TYPE":"PAYLOAD","BSTAR":"-0.00002219700000","RA_OF_ASC_NODE":"229.4391","PERIAPSIS":"545.920","ARG_OF_PERICENTER":"49.7591","COUNTRY_CODE":"US","SEMIMAJOR_AXIS":"6925.376","TLE_LINE2":"2 47919  53.0541 229.4391 0001908  49.7591 310.3564 15.06391014 96482","SITE":"AFETR","CENTER_NAME":"EARTH","MEAN_MOTION_DOT":"-0.00000612","REF_FRAME":"TEME","DECAY_DATE":null,"TLE_LINE1":"1 47919U 21021BM  22338.42088624 -.00000612  00000-0 -22197-4 0  9994","OBJECT_NAME":"STARLINK-2405","EPHEMERIS_TYPE":"0","PERIOD":"95.593","ELEMENT_SET_NO":"999","OBJECT_ID":"2021-021BM","NORAD_CAT_ID":"47919","MEAN_ANOMALY":"310.3564","REV_AT_EPOCH":"9648","GP_ID":"219519892","FILE":"3681207","INCLINATION":"53.0541","TIME_SYSTEM":"UTC","EPOCH":"2022-12-04T10:06:04.571136","APOAPSIS":"548.562","MEAN_MOTION":"15.06391014"},{"MEAN_MOTION_DDOT":"0.0000000000000","MEAN_ELEMENT_THEORY":"SGP4","LAUNCH_DATE":"2021-03-24","OBJECT_TYPE":"PAYLOAD","ECCENTRICITY":"0.00017580","RCS_SIZE":"LARGE","CLASSIFICATION_TYPE":"U","COUNTRY_CODE":"US","PERIAPSIS":"545.933","ARG_OF_PERICENTER":"67.5425","RA_OF_ASC_NODE":"272.6178","BSTAR":"-0.00026538000000","REF_FRAME":"TEME","CENTER_NAME":"EARTH","MEAN_MOTION_DOT":"-0.00004234","SEMIMAJOR_AXIS":"6925.286","SITE":"AFETR","TLE_LINE2":"2 47977  53.0554 272.6178 0001758  67.5425 292.5750 15.06420553 95219","EPHEMERIS_TYPE":"0","OBJECT_NAME":"STARLINK-2087","DECAY_DATE":null,"TLE_LINE1":"1 47977U 21024A   22338.82771430 -.00004234  00000-0 -26538-3 0  9995","NORAD_CAT_ID":"47977","OBJECT_ID":"2021-024A","PERIOD":"95.591","ELEMENT_SET_NO":"999","FILE":"3681494","GP_ID":"219553575","MEAN_ANOMALY":"292.5750","REV_AT_EPOCH":"9521","MEAN_MOTION":"15.06420553","INCLINATION":"53.0554","TIME_SYSTEM":"UTC","APOAPSIS":"548.368","EPOCH":"2022-12-04T19:51:54.515520"}];
